{
  "links" : {
    "next" : "https://api.nasa.gov/neo/rest/v1/feed?start_date=2004-03-23&end_date=2004-03-23&detailed=true&api_key=t0TVs3DtDT2H8Oy2Zy8m2eVrNsAVKAexjcZXUckd",
    "prev" : "https://api.nasa.gov/neo/rest/v1/feed?start_date=2004-03-21&end_date=2004-03-21&detailed=true&api_key=t0TVs3DtDT2H8Oy2Zy8m2eVrNsAVKAexjcZXUckd",
    "self" : "https://api.nasa.gov/neo/rest/v1/feed?start_date=2004-03-22&end_date=2004-03-22&detailed=true&api_key=t0TVs3DtDT2H8Oy2Zy8m2eVrNsAVKAexjcZXUckd"
  },
  "element_count" : 9,
  "near_earth_objects" : {
    "2004-03-22" : [ {
      "links" : {
        "self" : "https://api.nasa.gov/neo/rest/v1/neo/2267940?api_key=t0TVs3DtDT2H8Oy2Zy8m2eVrNsAVKAexjcZXUckd"
      },
      "neo_reference_id" : "2267940",
      "name" : "267940 (2004 EM20)",
      "nasa_jpl_url" : "http://ssd.jpl.nasa.gov/sbdb.cgi?sstr=2267940",
      "absolute_magnitude_h" : 20.3,
      "estimated_diameter" : {
        "kilometers" : {
          "estimated_diameter_min" : 0.2315021222,
          "estimated_diameter_max" : 0.5176544822
        },
        "meters" : {
          "estimated_diameter_min" : 231.5021222103,
          "estimated_diameter_max" : 517.6544821978
        },
        "miles" : {
          "estimated_diameter_min" : 0.1438487052,
          "estimated_diameter_max" : 0.3216554833
        },
        "feet" : {
          "estimated_diameter_min" : 759.5214226325,
          "estimated_diameter_max" : 1698.3415313737
        }
      },
      "is_potentially_hazardous_asteroid" : false,
      "close_approach_data" : [ {
        "close_approach_date" : "2004-03-22",
        "epoch_date_close_approach" : 1079942400000,
        "relative_velocity" : {
          "kilometers_per_second" : "12.2191506736",
          "kilometers_per_hour" : "43988.9424247897",
          "miles_per_hour" : "27333.01814167"
        },
        "miss_distance" : {
          "astronomical" : "0.2946587995",
          "lunar" : "114.6222763062",
          "kilometers" : "44080332",
          "miles" : "27390248"
        },
        "orbiting_body" : "Earth"
      } ],
      "orbital_data" : {
        "orbit_id" : "33",
        "orbit_determination_date" : "2017-04-06 09:24:34",
        "orbit_uncertainty" : "0",
        "minimum_orbit_intersection" : ".0906137",
        "jupiter_tisserand_invariant" : "5.468",
        "epoch_osculation" : "2458000.5",
        "eccentricity" : ".5238940880329553",
        "semi_major_axis" : "1.105511149044649",
        "inclination" : "14.14001237920333",
        "ascending_node_longitude" : "343.8115001623438",
        "orbital_period" : "424.5639518323956",
        "perihelion_distance" : ".526340393805638",
        "perihelion_argument" : "314.8349150778836",
        "aphelion_distance" : "1.68468190428366",
        "perihelion_time" : "2457837.215290120164",
        "mean_anomaly" : "138.4538072604584",
        "mean_motion" : ".8479287948170329",
        "equinox" : "J2000"
      }
    }, {
      "links" : {
        "self" : "https://api.nasa.gov/neo/rest/v1/neo/3177211?api_key=t0TVs3DtDT2H8Oy2Zy8m2eVrNsAVKAexjcZXUckd"
      },
      "neo_reference_id" : "3177211",
      "name" : "(2004 FD4)",
      "nasa_jpl_url" : "http://ssd.jpl.nasa.gov/sbdb.cgi?sstr=3177211",
      "absolute_magnitude_h" : 21.1,
      "estimated_diameter" : {
        "kilometers" : {
          "estimated_diameter_min" : 0.160160338,
          "estimated_diameter_max" : 0.358129403
        },
        "meters" : {
          "estimated_diameter_min" : 160.1603379786,
          "estimated_diameter_max" : 358.1294030194
        },
        "miles" : {
          "estimated_diameter_min" : 0.0995189894,
          "estimated_diameter_max" : 0.2225312253
        },
        "feet" : {
          "estimated_diameter_min" : 525.4604432536,
          "estimated_diameter_max" : 1174.9652706022
        }
      },
      "is_potentially_hazardous_asteroid" : false,
      "close_approach_data" : [ {
        "close_approach_date" : "2004-03-22",
        "epoch_date_close_approach" : 1079942400000,
        "relative_velocity" : {
          "kilometers_per_second" : "11.8458126725",
          "kilometers_per_hour" : "42644.9256210486",
          "miles_per_hour" : "26497.8983671454"
        },
        "miss_distance" : {
          "astronomical" : "0.4674677203",
          "lunar" : "181.8449401855",
          "kilometers" : "69932176",
          "miles" : "43453840"
        },
        "orbiting_body" : "Earth"
      } ],
      "orbital_data" : {
        "orbit_id" : "12",
        "orbit_determination_date" : "2017-04-06 09:13:04",
        "orbit_uncertainty" : "1",
        "minimum_orbit_intersection" : ".40806",
        "jupiter_tisserand_invariant" : "3.798",
        "epoch_osculation" : "2458000.5",
        "eccentricity" : ".3246147331002503",
        "semi_major_axis" : "1.890801787819276",
        "inclination" : "23.42317457730284",
        "ascending_node_longitude" : "345.8662243721379",
        "orbital_period" : "949.6584420375922",
        "perihelion_distance" : "1.277019670120846",
        "perihelion_argument" : "245.1723146905954",
        "aphelion_distance" : "2.504583905517706",
        "perihelion_time" : "2457912.319785471147",
        "mean_anomaly" : "33.42767865283768",
        "mean_motion" : ".3790836621507645",
        "equinox" : "J2000"
      }
    }, {
      "links" : {
        "self" : "https://api.nasa.gov/neo/rest/v1/neo/3177208?api_key=t0TVs3DtDT2H8Oy2Zy8m2eVrNsAVKAexjcZXUckd"
      },
      "neo_reference_id" : "3177208",
      "name" : "(2004 FK2)",
      "nasa_jpl_url" : "http://ssd.jpl.nasa.gov/sbdb.cgi?sstr=3177208",
      "absolute_magnitude_h" : 24.3,
      "estimated_diameter" : {
        "kilometers" : {
          "estimated_diameter_min" : 0.0366906138,
          "estimated_diameter_max" : 0.0820427065
        },
        "meters" : {
          "estimated_diameter_min" : 36.6906137531,
          "estimated_diameter_max" : 82.0427064882
        },
        "miles" : {
          "estimated_diameter_min" : 0.0227984834,
          "estimated_diameter_max" : 0.0509789586
        },
        "feet" : {
          "estimated_diameter_min" : 120.3760332259,
          "estimated_diameter_max" : 269.1689931548
        }
      },
      "is_potentially_hazardous_asteroid" : false,
      "close_approach_data" : [ {
        "close_approach_date" : "2004-03-22",
        "epoch_date_close_approach" : 1079942400000,
        "relative_velocity" : {
          "kilometers_per_second" : "6.9157539741",
          "kilometers_per_hour" : "24896.7143068522",
          "miles_per_hour" : "15469.8500647216"
        },
        "miss_distance" : {
          "astronomical" : "0.0398892619",
          "lunar" : "15.5169229507",
          "kilometers" : "5967348.5",
          "miles" : "3707938.5"
        },
        "orbiting_body" : "Earth"
      } ],
      "orbital_data" : {
        "orbit_id" : "13",
        "orbit_determination_date" : "2017-04-06 09:13:04",
        "orbit_uncertainty" : "7",
        "minimum_orbit_intersection" : ".0390489",
        "jupiter_tisserand_invariant" : "4.869",
        "epoch_osculation" : "2458000.5",
        "eccentricity" : ".2313482743270195",
        "semi_major_axis" : "1.332912465986569",
        "inclination" : "11.44378240472597",
        "ascending_node_longitude" : "177.858933663087",
        "orbital_period" : "562.083544877466",
        "perihelion_distance" : "1.024545467151604",
        "perihelion_argument" : "19.43121890089621",
        "aphelion_distance" : "1.641279464821534",
        "perihelion_time" : "2458160.971665058324",
        "mean_anomaly" : "257.2220411939108",
        "mean_motion" : ".6404741844532734",
        "equinox" : "J2000"
      }
    } ]
  }
}